{
    "links": {
        "self": "http://www.neowsapp.com/rest/v1/neo/3732893?api_key=iIulBulltgU6a56xZRHN4H3l9WmuAYTsLGpBGhQ2"
    },
    "id": "3732893",
    "neo_reference_id": "3732893",
    "name": "(2015 UE67)",
    "designation": "2015 UE67",
    "nasa_jpl_url": "http://ssd.jpl.nasa.gov/sbdb.cgi?sstr=3732893",
    "absolute_magnitude_h": 21.4,
    "estimated_diameter": {
        "kilometers": {
            "estimated_diameter_min": 0.1394938229,
            "estimated_diameter_max": 0.3119176705
        },
        "meters": {
            "estimated_diameter_min": 139.4938229344,
            "estimated_diameter_max": 311.9176705226
        },
        "miles": {
            "estimated_diameter_min": 0.0866774163,
            "estimated_diameter_max": 0.1938165949
        },
        "feet": {
            "estimated_diameter_min": 457.6569140361,
            "estimated_diameter_max": 1023.3519701574
        }
    },
    "is_potentially_hazardous_asteroid": false,
    "close_approach_data": [
        {
            "close_approach_date": "2015-10-07",
            "close_approach_date_full": "2015-Oct-07 10:39",
            "epoch_date_close_approach": 1444214340000,
            "relative_velocity": {
                "kilometers_per_second": "2.2141147113",
                "kilometers_per_hour": "7970.8129605648",
                "miles_per_hour": "4952.7531976354"
            },
            "miss_distance": {
                "astronomical": "0.3569816707",
                "lunar": "138.8658699023",
                "kilometers": "53403697.565761409",
                "miles": "33183518.9271450842"
            },
            "orbiting_body": "Earth"
        },
        {
            "close_approach_date": "2037-06-11",
            "close_approach_date_full": "2037-Jun-11 06:54",
            "epoch_date_close_approach": 2128316040000,
            "relative_velocity": {
                "kilometers_per_second": "6.8175422917",
                "kilometers_per_hour": "24543.1522500099",
                "miles_per_hour": "15250.1603522353"
            },
            "miss_distance": {
                "astronomical": "0.0880345172",
                "lunar": "34.2454271908",
                "kilometers": "13169776.259598364",
                "miles": "8183319.5021468632"
            },
            "orbiting_body": "Mars"
        }
    ],
    "orbital_data": {
        "orbit_id": "13",
        "orbit_determination_date": "2017-04-06 08:31:06",
        "first_observation_date": "2015-10-25",
        "last_observation_date": "2015-12-03",
        "data_arc_in_days": 39,
        "observations_used": 42,
        "orbit_uncertainty": "5",
        "minimum_orbit_intersection": ".304292",
        "jupiter_tisserand_invariant": "3.386",
        "epoch_osculation": "2459000.5",
        "eccentricity": ".4605688297430553",
        "semi_major_axis": "2.370181754451024",
        "inclination": "6.522633587497451",
        "ascending_node_longitude": "84.21174011136598",
        "orbital_period": "1332.818164056002",
        "perihelion_distance": "1.278549917525175",
        "perihelion_argument": "278.1519599788098",
        "aphelion_distance": "3.461813591376874",
        "perihelion_time": "2458612.495938066358",
        "mean_anomaly": "104.8015896414825",
        "mean_motion": ".270104362101771",
        "equinox": "J2000",
        "orbit_class": {
            "orbit_class_type": "AMO",
            "orbit_class_description": "Near-Earth asteroid orbits similar to that of 1221 Amor",
            "orbit_class_range": "1.017 AU < q (perihelion) < 1.3 AU"
        }
    },
    "is_sentry_object": false
}